STARLINK-31675          
1 59548U 24074Q   25212.53623584 -.00000580  00000+0 -11564-4 0  9991
2 59548  43.0032 152.3197 0001199 261.5200  98.5516 15.27575621 72193
STARLINK-31722          
1 59549U 24074R   25212.51695956  .00002382  00000+0  96053-4 0  9998
2 59549  42.9989 152.1708 0001479 275.6897  84.3786 15.27581474 72193
STARLINK-31741          
1 59550U 24074S   25212.91668981  .00015053  00000+0  55539-3 0  9994
2 59550  42.9988 150.0179 0001322 250.5990 107.8020 15.27582027 73318
STARLINK-31699          
1 59551U 24074T   25212.21187199  .00000081  00000+0  12456-4 0  9992
2 59551  43.0006 154.1811 0000588 258.6017 101.4768 15.27580656 72147
STARLINK-31750          
1 59552U 24074U   25212.22344199  .00000117  00000+0  13779-4 0  9998
2 59552  43.0006 154.2743 0000642 282.8877  77.1903 15.27574967 73371
STARLINK-31723          
1 59553U 24074V   25212.21958491 -.00000461  00000+0 -72455-5 0  9995
2 59553  43.0011 154.2469 0000583 286.3414  73.7374 15.27576227 73312
STARLINK-31724          
1 59554U 24074W   25212.15622387  .00000239  00000+0  18219-4 0  9999
2 59554  43.0006 118.5828 0001605 256.6313 103.4360 15.27579872 72542
STARLINK-31730          
1 59555U 24074X   25212.24913523  .00000024  00000+0  10387-4 0  9995
2 59555  43.0008 154.4609 0001303 261.5488  98.5216 15.27579735 72142
STARLINK-31718          
1 59556U 24074Y   25212.91668981 -.00000608  00000+0 -12548-4 0  9996
2 59556  43.0013 150.5417 0001546 269.2139 229.8686 15.27582709 73427
STARLINK-31747          
1 59564U 24076A   25212.28194312  .00017547  00000+0  64727-3 0  9992
2 59564  43.0009 168.8078 0000954 283.3156  76.7589 15.27497539 72756
STARLINK-31388          
1 59565U 24076B   25212.18312906  .00000038  00000+0  10886-4 0  9998
2 59565  43.0006 180.1813 0001134 260.1524  99.9200 15.27576210 72628
STARLINK-31332          
1 59566U 24076C   25212.60741941 -.00000411  00000+0 -54233-5 0  9993
2 59566  43.0011 177.3272 0000895 275.8710  84.2039 15.27574886 72696
STARLINK-31689          
1 59567U 24076D   25212.17718602  .00003836  00000+0  14894-3 0  9993
2 59567  43.0024 176.6614 0001662 258.4345 101.6320 15.27558973 72660
STARLINK-31471          
1 59568U 24076E   25212.89075232  .00013574  00000+0  50112-3 0  9991
2 59568  43.0055 176.0219 0003301 285.8403  74.2085 15.27627029 72562
STARLINK-31470          
1 59569U 24076F   25212.30152960  .00000013  00000+0  99913-5 0  9990
2 59569  43.0017 175.8768 0001366 277.4195  82.6501 15.27579086 72599
STARLINK-31587          
1 59570U 24076G   25212.24465296  .00002605  00000+0  10420-3 0  9997
2 59570  43.0034 179.7656 0001187 256.7834 103.2885 15.27569803 72658
STARLINK-31606          
1 59571U 24076H   25212.58335648 -.00026187  00000+0 -94521-3 0  9999
2 59571  42.9994 177.2766 0001156 259.5416  45.8536 15.27587950  5866
STARLINK-31666          
1 59572U 24076J   25212.23020381 -.00001551  00000+0 -46860-4 0  9999
2 59572  43.0016 172.7141 0001291 269.4189  90.6515 15.27582509 72716
STARLINK-31683          
1 59573U 24076K   25212.61513101 -.00001094  00000+0 -30257-4 0  9994
2 59573  43.0003 177.3816 0000732 265.1342  94.9426 15.27573104 72692
STARLINK-31751          
1 59574U 24076L   25212.91008459  .00001815  00000+0  75442-4 0  9997
2 59574  43.0009 176.1718 0001126 258.0674 102.0051 15.27585562 72735
STARLINK-31510          
1 59575U 24076M   25212.89258586  .00000189  00000+0  16380-4 0  9992
2 59575  43.0002 172.5771 0000871 261.4764  98.5989 15.27572152 72776
STARLINK-31663          
1 59576U 24076N   25212.18697783 -.00000155  00000+0  38828-5 0  9997
2 59576  43.0008 180.1890 0001485 259.3574 100.7110 15.27593525 72620
STARLINK-31692          
1 59577U 24076P   25212.30489581  .00000844  00000+0  40184-4 0  9998
2 59577  43.0026 179.3335 0001365 284.3738  75.6962 15.27576895 72640
STARLINK-31685          
1 59578U 24076Q   25212.33559022  .00000594  00000+0  31083-4 0  9990
2 59578  43.0003 178.7188 0000522 256.4241 103.6552 15.27579570 72659
STARLINK-31686          
1 59579U 24076R   25212.60099111 -.00001842  00000+0 -57431-4 0  9993
2 59579  43.0024 177.2750 0002716 264.7736  95.2806 15.27572368 72690
STARLINK-31668          
1 59580U 24076S   25212.58944054 -.00001746  00000+0 -53972-4 0  9996
2 59580  43.0024 177.1920 0000814 281.6152  78.4609 15.27564429 72690
STARLINK-31690          
1 59581U 24076T   25212.61127597 -.00000199  00000+0  22912-5 0  9997
2 59581  43.0011 177.3540 0000598 274.8377  85.2406 15.27573102 72698
STARLINK-31701          
1 59582U 24076U   25212.29978135  .00051723  00000+0  18685-2 0  9991
2 59582  43.0050 179.3205 0002075 273.3745  86.6869 15.27710381 72552
STARLINK-31697          
1 59583U 24076V   25212.88052862 -.00001798  00000+0 -55807-4 0  9995
2 59583  43.0024 175.9337 0000764 271.9040  88.1724 15.27587093 72567
STARLINK-31662          
1 59584U 24076W   25212.89466199  .00000617  00000+0  31938-4 0  9995
2 59584  43.0009 176.0385 0001214 280.6643  79.4072 15.27580498 72733
STARLINK-31702          
1 59585U 24076X   25211.93057060  .00000533  00000+0  28884-4 0  9996
2 59585  43.0015 181.7060 0001534 272.0375  88.0301 15.27578090 72574
STARLINK-31704          
1 59586U 24076Y   25212.84885140  .00001093  00000+0  49250-4 0  9998
2 59586  43.0028 132.8910 0001438 262.2780  97.7909 15.27576452 73172
STARLINK-31770          
1 59601U 24080A   25212.45000827 -.00002146  00000+0 -68468-4 0  9993
2 59601  43.0043 207.6370 0002348 287.9290  72.1306 15.27577554 71900
STARLINK-31778          
1 59602U 24080B   25212.45176714 -.00000652  00000+0 -14175-4 0  9999
2 59602  43.0002 204.1906 0000989 268.9669  91.1070 15.27578362 70738
STARLINK-31776          
1 59603U 24080C   25212.44822677 -.00000021  00000+0  87436-5 0  9995
2 59603  43.0027 211.0780 0001114 286.5435  73.5294 15.27579342 70653
STARLINK-31765          
1 59604U 24080D   25212.42092575  .00002841  00000+0  11273-3 0  9995
2 59604  42.9993 203.9593 0001100 266.2272  93.8453 15.27580677 70739
STARLINK-31767          
1 59605U 24080E   25212.44228393 -.00000806  00000+0 -19767-4 0  9995
2 59605  43.0029 207.5820 0001283 285.7578  74.3132 15.27585661 70693
STARLINK-31782          
1 59606U 24080F   25212.00079928  .00000638  00000+0  32696-4 0  9993
2 59606  43.0010 213.7402 0001473 268.2722  91.7961 15.27578273 70589
STARLINK-31755          
1 59607U 24080G   25212.46235324 -.00003754  00000+0 -12699-3 0  9992
2 59607  43.0017 211.1836 0001637 271.6266  88.4398 15.27568487 70654
STARLINK-31585          
1 59608U 24080H   25212.26060076 -.00000012  00000+0  90887-5 0  9991
2 59608  43.0015 204.4682 0001310 271.8463  88.2239 15.27576928 70725
STARLINK-31667          
1 59609U 24080J   25212.39522535 -.00000053  00000+0  75861-5 0  9999
2 59609  43.0000 203.7550 0001067 262.8031  97.2699 15.27577963 70737
STARLINK-31729          
1 59610U 24080K   25212.25046346  .00000967  00000+0  44671-4 0  9994
2 59610  43.0002 205.2569 0001211 253.9475 106.1244 15.27580184 70704
STARLINK-31448          
1 59611U 24080L   25212.03888844  .00000143  00000+0  14746-4 0  9994
2 59611  43.0023 206.2494 0001780 279.1557  80.9094 15.27575938 71892
STARLINK-31748          
1 59612U 24080M   25212.34655089  .00002942  00000+0  11640-3 0  9990
2 59612  42.9984 204.2559 0001271 287.7777  72.2936 15.27579128 71895
STARLINK-31746          
1 59613U 24080N   25212.27005074  .00000123  00000+0  14038-4 0  9990
2 59613  42.9992 212.2963 0003149 305.1149  54.9407 15.27578228 70627
STARLINK-31762          
1 59614U 24080P   25212.04611836 -.00001023  00000+0 -27677-4 0  9990
2 59614  43.0025 209.7642 0001040 279.4577  80.6157 15.27575188 70639
STARLINK-31761          
1 59615U 24080Q   25212.40259214  .00000497  00000+0  27573-4 0  9996
2 59615  43.0009 208.0826 0001129 266.4348  93.6375 15.27576411 70689
STARLINK-31768          
1 59616U 24080R   25212.04354483 -.00000521  00000+0 -94028-5 0  9991
2 59616  43.0012 209.7428 0000649 293.5758  66.5025 15.27577556 70639
STARLINK-31769          
1 59617U 24080S   25212.25767721  .00005216  00000+0  19883-3 0  9996
2 59617  43.0008 208.7651 0001704 267.3581  92.7075 15.27597482 70667
STARLINK-31784          
1 59618U 24080T   25211.73282819  .00000851  00000+0  40468-4 0  9993
2 59618  43.0020 215.1658 0001518 276.3630  83.7049 15.27576832 70543
STARLINK-31777          
1 59619U 24080U   25212.45594821  .00008937  00000+0  33429-3 0  9994
2 59619  43.0022 211.1385 0001222 294.6318  65.4406 15.27541752 70656
STARLINK-31771          
1 59620U 24080V   25212.25718792  .00008862  00000+0  32161-3 0  9998
2 59620  42.9991 208.7312 0000189 111.9933 248.0939 15.28545824 70664
STARLINK-31758          
1 59621U 24080W   25212.26959149 -.00002927  00000+0 -96854-4 0  9991
2 59621  42.9992 204.5352 0001118 270.1137  89.9587 15.27591520 70711
STARLINK-31774          
1 59622U 24080X   25212.04531331  .00000476  00000+0  26841-4 0  9991
2 59622  43.0018 206.2965 0001752 278.9639  81.1015 15.27574285 71898
STARLINK-31763          
1 59623U 24080Y   25212.45770650  .00001767  00000+0  73718-4 0  9995
2 59623  43.0001 207.6856 0001107 255.4851 104.5878 15.27574853 70690
STARLINK-31749          
1 59631U 24082A   25212.53828613  .00036307  00000+0  13119-2 0  9993
2 59631  43.0010 308.4253 0004082 109.1835 250.9459 15.27837151 71192
STARLINK-31781          
1 59632U 24082B   25212.56756407 -.00097709  00000+0 -36317-2 0  9998
2 59632  42.9995 294.4844 0003072  64.8316 295.2853 15.27179521 71136
STARLINK-31541          
1 59633U 24082C   25212.54973819  .00000328  00000+0  21426-4 0  9991
2 59633  42.9976 301.5696 0000801 222.8913 137.1876 15.27585545 71267
STARLINK-31797          
1 59634U 24082D   25212.75392256 -.00001351  00000+0 -39587-4 0  9991
2 59634  43.0019 307.4548 0001104 272.2022  87.8703 15.27588970 71014
